{
  "norad_id": 62442,
  "name": "STARLINK-32291",
  "history": [
    {
      "epoch": "2026-03-28T19:04:06.440736Z",
      "apogee_km": 475.73059406279845,
      "perigee_km": 474.6269360919896,
      "latitude_deg": -3.196282615504368e-06,
      "longitude_deg": 134.3097116819269,
      "height_km": 475.90031189620015,
      "semi_major_axis_km": 6853.315765077394,
      "eccentricity": 8.052e-05,
      "inclination_deg": 53.1568,
      "raan_deg": 246.5464,
      "arg_perigee_deg": 71.3058,
      "mean_anomaly_deg": 288.803,
      "mean_motion_rev_day": 15.30212159
    }
  ]
}