{"fetched_at":"2026-03-29T16:36:15Z","count":15609,"tles":[{"name":"STARLINK-32291","line1":"1 62442U 24251L   26087.79451899  .00029426  00000+0  10013-2 0  9996","line2":"2 62442  53.1568 246.5464 0000805  71.3058 288.8030 15.30212159 70562","category":"Starlink"}]}